IRIDIUM 39              
1 25042U 97069D   25317.46783039  .00001539  00000+0  39614-3 0  9995
2 25042  86.3909 147.1867 0018223 161.4310 198.7563 14.49439831470585
IRIDIUM 38              
1 25043U 97069E   25317.34055850  .00000963  00000+0  31055-3 0  9997
2 25043  86.3986 170.4686 0002094  31.1699 328.9623 14.38274869467396
IRIDIUM 42              
1 25077U 97077A   25317.59997441  .00000745  00000+0  24749-3 0  9991
2 25077  86.3997 176.7078 0002124  64.2626 295.8790 14.36499260462642
IRIDIUM 44              
1 25078U 97077B   25317.49832574  .00000967  00000+0  29856-3 0  9996
2 25078  86.3971 158.2961 0000415 139.0693 221.0537 14.40396381465195
IRIDIUM 45              
1 25104U 97082A   25317.50918064  .00047706  00000+0  14105-2 0  9995
2 25104  86.3557 335.0620 0104642 128.6862 232.3804 15.29376723474807
IRIDIUM 24              
1 25105U 97082B   25317.62489227  .00001164  00000+0  34689-3 0  9991
2 25105  86.3942  16.9024 0009535 311.0679  48.9697 14.42288750464758
IRIDIUM 51              
1 25262U 98018A   25317.49937023  .00123488  00000+0  16153-2 0  9991
2 25262  86.3770 341.1839 0061934  34.4164 326.1085 15.55902777470097
IRIDIUM 57              
1 25273U 98019B   25317.78512204  .00001002  00000+0  33815-3 0  9998
2 25273  86.3941  82.5328 0001947  90.4339 269.7081 14.36018302446251
